$$SOE
2460728.500000000, A.D. 2025-Feb-22 00:00:00.0000, 3.316888927069792E+08, 2.048086790491702E+08, -5.350718218023822E+06,
2460735.500000000, A.D. 2025-Mar-01 00:00:00.0000, 3.305298689017504E+08, 2.142376494644232E+08, -4.571189257555053E+06,
2460742.500000000, A.D. 2025-Mar-08 00:00:00.0000, 3.291082551687458E+08, 2.234965177275792E+08, -3.788026678283766E+06,
2460749.500000000, A.D. 2025-Mar-15 00:00:00.0000, 3.274328469973788E+08, 2.325831347827469E+08, -3.001941436310053E+06,
2460756.500000000, A.D. 2025-Mar-22 00:00:00.0000, 3.255120377939433E+08, 2.414955414300775E+08, -2.213605128104284E+06,
2460763.500000000, A.D. 2025-Mar-29 00:00:00.0000, 3.233538439705581E+08, 2.502319430984952E+08, -1.423653429932773E+06,
2460770.500000000, A.D. 2025-Apr-05 00:00:00.0000, 3.209659299599166E+08, 2.587906881372473E+08, -6.326893116385043E+05,
2460777.500000000, A.D. 2025-Apr-12 00:00:00.0000, 3.183556313550141E+08, 2.671702493965603E+08, 1.587141271945834E+05,
2460784.500000000, A.D. 2025-Apr-19 00:00:00.0000, 3.155299761074854E+08, 2.753692079288015E+08, 9.500111144568622E+05,
2460791.500000000, A.D. 2025-Apr-26 00:00:00.0000, 3.124957041709176E+08, 2.833862383581353E+08, 1.740680888481230E+06,
2460798.500000000, A.D. 2025-May-03 00:00:00.0000, 3.092592858104601E+08, 2.912200957216020E+08, 2.530225574713930E+06,
2460805.500000000, A.D. 2025-May-10 00:00:00.0000, 3.058269387078674E+08, 2.988696036022236E+08, 3.318168233583823E+06,
2460812.500000000, A.D. 2025-May-17 00:00:00.0000, 3.022046439924081E+08, 3.063336433493863E+08, 4.104051054562300E+06,
2460819.500000000, A.D. 2025-May-24 00:00:00.0000, 2.983981614589304E+08, 3.136111441894724E+08, 4.887433659761712E+06,
2460826.500000000, A.D. 2025-May-31 00:00:00.0000, 2.944130444727411E+08, 3.207010744130936E+08, 5.667891489632830E+06,
2460833.500000000, A.D. 2025-Jun-07 00:00:00.0000, 2.902546542360209E+08, 3.276024347326454E+08, 6.445014392852083E+06,
2460840.500000000, A.D. 2025-Jun-14 00:00:00.0000, 2.859281711180272E+08, 3.343142530451290E+08, 7.218405571207404E+06,
2460847.500000000, A.D. 2025-Jun-21 00:00:00.0000, 2.814386043293361E+08, 3.408355772473174E+08, 7.987680490562394E+06,
2460854.500000000, A.D. 2025-Jun-28 00:00:00.0000, 2.767908031313810E+08, 3.471654677953371E+08, 8.752465605829179E+06,
2460861.500000000, A.D. 2025-Jul-05 00:00:00.0000, 2.719894681202900E+08, 3.533029920975862E+08, 9.512397206729010E+06,
2460868.500000000, A.D. 2025-Jul-12 00:00:00.0000, 2.670391614443489E+08, 3.592472198770323E+08, 1.026712042027850E+07,
2460875.500000000, A.D. 2025-Jul-19 00:00:00.0000, 2.619443161923642E+08, 3.649972188769299E+08, 1.101628829891486E+07,
2460882.500000000, A.D. 2025-Jul-26 00:00:00.0000, 2.567092452078585E+08, 3.705520508082316E+08, 1.175956096430951E+07,
2460889.500000000, A.D. 2025-Aug-02 00:00:00.0000, 2.513381494367423E+08, 3.759107675198922E+08, 1.249660479712573E+07,
2460896.500000000, A.D. 2025-Aug-09 00:00:00.0000, 2.458351258714757E+08, 3.810724073407674E+08, 1.322709166433978E+07,
2460903.500000000, A.D. 2025-Aug-16 00:00:00.0000, 2.402041752054227E+08, 3.860359914962734E+08, 1.395069816726068E+07,
2460910.500000000, A.D. 2025-Aug-23 00:00:00.0000, 2.344492095237704E+08, 3.908005205856784E+08, 1.466710488047418E+07,
2460917.500000000, A.D. 2025-Aug-30 00:00:00.0000, 2.285740603911835E+08, 3.953649718067454E+08, 1.537599560594177E+07,
2460924.500000000, A.D. 2025-Sep-06 00:00:00.0000, 2.225824859468963E+08, 3.997282979027667E+08, 1.607705685039848E+07,
2460931.500000000, A.D. 2025-Sep-13 00:00:00.0000, 2.164781753616905E+08, 4.038894253274629E+08, 1.676997747336730E+07,
2460938.500000000, A.D. 2025-Sep-20 00:00:00.0000, 2.102647539568924E+08, 4.078472499692017E+08, 1.745444806883472E+07,
2460945.500000000, A.D. 2025-Sep-27 00:00:00.0000, 2.039457900741939E+08, 4.116006335320674E+08, 1.813016023516515E+07,
2460952.500000000, A.D. 2025-Oct-04 00:00:00.0000, 1.975248017070656E+08, 4.151484010962617E+08, 1.879680595956647E+07,
2460959.500000000, A.D. 2025-Oct-11 00:00:00.0000, 1.910052625451737E+08, 4.184893388993575E+08, 1.945407707174960E+07,
2460966.500000000, A.D. 2025-Oct-18 00:00:00.0000, 1.843906077396947E+08, 4.216221920501924E+08, 2.010166471583110E+07,
2460973.500000000, A.D. 2025-Oct-25 00:00:00.0000, 1.776842395526728E+08, 4.245456621738437E+08, 2.073925882610446E+07,
2460980.500000000, A.D. 2025-Nov-01 00:00:00.0000, 1.708895329531081E+08, 4.272584049917516E+08, 2.136654760189214E+07,
2460987.500000000, A.D. 2025-Nov-08 00:00:00.0000, 1.640098412175023E+08, 4.297590277951126E+08, 2.198321697334585E+07,
2460994.500000000, A.D. 2025-Nov-15 00:00:00.0000, 1.570485017060338E+08, 4.320460867433763E+08, 2.258895003748474E+07,
2461001.500000000, A.D. 2025-Nov-22 00:00:00.0000, 1.500088422408045E+08, 4.341180841992368E+08, 2.318342644319502E+07,
2461008.500000000, A.D. 2025-Nov-29 00:00:00.0000, 1.428941879579301E+08, 4.359734672268870E+08, 2.376632182957709E+07,
2461015.500000000, A.D. 2025-Dec-06 00:00:00.0000, 1.357078663814009E+08, 4.376106271070177E+08, 2.433730751273972E+07,
2461022.500000000, A.D. 2025-Dec-13 00:00:00.0000, 1.284532111750813E+08, 4.390278964876687E+08, 2.489605010337907E+07,
2461029.500000000, A.D. 2025-Dec-20 00:00:00.0000, 1.211335680905493E+08, 4.402235451891756E+08, 2.544221081624138E+07,
2461036.500000000, A.D. 2025-Dec-27 00:00:00.0000, 1.137523020652965E+08, 4.411957772493006E+08, 2.597544477929381E+07,
2461043.500000000, A.D. 2026-Jan-03 00:00:00.0000, 1.063128040404914E+08, 4.419427285864217E+08, 2.649540042370439E+07,
2461050.500000000, A.D. 2026-Jan-10 00:00:00.0000, 9.881849763785341E+07, 4.424624645970134E+08, 2.700171888685438E+07,
2461057.500000000, A.D. 2026-Jan-17 00:00:00.0000, 9.127284596068977E+07, 4.427529775921615E+08, 2.749403339735276E+07,
2461064.500000000, A.D. 2026-Jan-24 00:00:00.0000, 8.367935863224086E+07, 4.428121840923736E+08, 2.797196863444331E+07,
2461071.500000000, A.D. 2026-Jan-31 00:00:00.0000, 7.604159913260007E+07, 4.426379219699371E+08, 2.843514005657646E+07,
2461078.500000000, A.D. 2026-Feb-07 00:00:00.0000, 6.836319253622876E+07, 4.422279473783398E+08, 2.888315318617237E+07,
2461085.500000000, A.D. 2026-Feb-14 00:00:00.0000, 6.064783394654359E+07, 4.415799314509022E+08, 2.931560282330534E+07,
2461092.500000000, A.D. 2026-Feb-21 00:00:00.0000, 5.289929806208907E+07, 4.406914573445146E+08, 2.973207219697532E+07,
2461099.500000000, A.D. 2026-Feb-28 00:00:00.0000, 4.512144884165484E+07, 4.395600187820676E+08, 3.013213224450496E+07,
2461106.500000000, A.D. 2026-Mar-07 00:00:00.0000, 3.731824726699518E+07, 4.381830181413366E+08, 3.051534104478145E+07,
2461113.500000000, A.D. 2026-Mar-14 00:00:00.0000, 2.949376003779793E+07, 4.365577617564600E+08, 3.088124295651603E+07,
2461120.500000000, A.D. 2026-Mar-21 00:00:00.0000, 2.165217104797554E+07, 4.346814553363866E+08, 3.122936753134599E+07,
2461127.500000000, A.D. 2026-Mar-28 00:00:00.0000, 1.379779370992638E+07, 4.325512005356934E+08, 3.155922846602437E+07,
2461134.500000000, A.D. 2026-Apr-04 00:00:00.0000, 5.935083605902293E+06, 4.301639917189599E+08, 3.187032256571457E+07,
2461141.500000000, A.D. 2026-Apr-11 00:00:00.0000, -1.931348168125559E+06, 4.275167125690311E+08, 3.216212865918639E+07,
2461148.500000000, A.D. 2026-Apr-18 00:00:00.0000, -9.796720704542104E+06, 4.246061325459671E+08, 3.243410644562098E+07,
2461155.500000000, A.D. 2026-Apr-25 00:00:00.0000, -1.765606787247300E+07, 4.214289032275779E+08, 3.268569526425165E+07,
2461162.500000000, A.D. 2026-May-02 00:00:00.0000, -2.550422163640093E+07, 4.179815545217554E+08, 3.291631277525434E+07,
2461169.500000000, A.D. 2026-May-09 00:00:00.0000, -3.333579384292410E+07, 4.142604907106892E+08, 3.312535352841145E+07,
2461176.500000000, A.D. 2026-May-16 00:00:00.0000, -4.114515594589057E+07, 4.102619865020475E+08, 3.331218738958406E+07,
2461183.500000000, A.D. 2026-May-23 00:00:00.0000, -4.892641644780930E+07, 4.059821841600976E+08, 3.347615789723715E+07,
2461190.500000000, A.D. 2026-May-30 00:00:00.0000, -5.667339794134896E+07, 4.014170921007987E+08, 3.361658075868917E+07,
2461197.500000000, A.D. 2026-Jun-06 00:00:00.0000, -6.437961384718693E+07, 3.965625817497445E+08, 3.373274223940876E+07,
2461204.500000000, A.D. 2026-Jun-13 00:00:00.0000, -7.203824093945713E+07, 3.914143829492961E+08, 3.382389711685088E+07,
2461211.500000000, A.D. 2026-Jun-20 00:00:00.0000, -7.964208788687919E+07, 3.859680809556246E+08, 3.388926647528636E+07,
2461218.500000000, A.D. 2026-Jun-27 00:00:00.0000, -8.718356119773735E+07, 3.802191148229827E+08, 3.392803546018182E+07,
2461225.500000000, A.D. 2026-Jul-04 00:00:00.0000, -9.465462822167352E+07, 3.741627765655078E+08, 3.393935091922158E+07,
2461232.500000000, A.D. 2026-Jul-11 00:00:00.0000, -1.020467765649556E+08, 3.677942111686431E+08, 3.392231888662367E+07,
2461239.500000000, A.D. 2026-Jul-18 00:00:00.0000, -1.093509693880534E+08, 3.611084177272626E+08, 3.387600189558865E+07,
2461246.500000000, A.D. 2026-Jul-25 00:00:00.0000, -1.165575960671531E+08, 3.541002520218896E+08, 3.379941610898238E+07,
2461253.500000000, A.D. 2026-Aug-01 00:00:00.0000, -1.236564176153114E+08, 3.467644308635441E+08, 3.369152825344366E+07,
2461260.500000000, A.D. 2026-Aug-08 00:00:00.0000, -1.306365060226269E+08, 3.390955386358413E+08, 3.355125232997274E+07,
2461267.500000000, A.D. 2026-Aug-15 00:00:00.0000, -1.374861763978429E+08, 3.310880370551107E+08, 3.337744609866028E+07,
2461274.500000000, A.D. 2026-Aug-22 00:00:00.0000, -1.441929118858427E+08, 3.227362800730016E+08, 3.316890751083204E+07,
2461281.500000000, A.D. 2026-Aug-29 00:00:00.0000, -1.507432827674145E+08, 3.140345334164206E+08, 3.292437119628452E+07,
2461288.500000000, A.D. 2026-Sep-05 00:00:00.0000, -1.571228566183478E+08, 3.049769969551556E+08, 3.264250459323196E+07,
2461295.500000000, A.D. 2026-Sep-12 00:00:00.0000, -1.633160959849670E+08, 2.955578336944098E+08, 3.232190372984472E+07,
$$EOE